KUIPER-00044            
1 64505U 25134F   25362.84381131  .00003255  00000+0  45544-3 0  9991
2 64505  51.8985 199.8741 0012094  41.7391 318.4492 14.79951448 29394
KUIPER-00046            
1 64506U 25134G   25362.83135345  .00003515  00000+0  48054-3 0  9993
2 64506  51.8980 196.2219 0013094  50.4942 309.7177 14.80735106 29443
KUIPER-00047            
1 64507U 25134H   25363.33335648  .00034977  00000+0  47083-2 0  9994
2 64507  51.8975 165.5175 0001252 317.6780  14.5929 14.78887920  4661
KUIPER-00048            
1 64508U 25134J   25362.87778853  .00004940  00000+0  67620-3 0  9999
2 64508  51.8979 168.7135 0002544 184.6522 175.4417 14.79953540 29836
KUIPER-00049            
1 64509U 25134K   25362.86268598  .00004199  00000+0  57925-3 0  9992
2 64509  51.8987 182.2514 0003147  65.4405 294.6885 14.79948789 29645
KUIPER-00050            
1 64510U 25134L   25362.66931927  .00005783  00000+0  52167-3 0  9998
2 64510  51.8881 174.6772 0005078  85.8089 274.3461 14.96795288 29738
KUIPER-00051            
1 64511U 25134M   25362.79792586  .00011294  00000+0  15071-2 0  9995
2 64511  51.8998 180.1060 0002779  66.8739 293.2516 14.79957269 29669
KUIPER-00052            
1 64512U 25134N   25363.00001157  .00060418  00000+0  39800-3 0  9997
2 64512  51.8591 111.7692 0001533 110.0098  98.9457 15.75060608  5989
